ONEWEB-0116             
1 48046U 21025E   25324.17148817  .00000307  00000+0  80706-3 0  9998
2 48046  87.9006   1.7527 0001881 100.3320 259.8021 13.13470194226216
ONEWEB-0150             
1 48047U 21025F   25324.14777623 -.00000137  00000+0 -41035-3 0  9994
2 48047  87.9009   1.7527 0001631  96.1231 264.0084 13.13469761226109
ONEWEB-0107             
1 48048U 21025G   25324.14947638 -.00000052  00000+0 -17691-3 0  9997
2 48048  87.9008   1.7492 0001771  88.0325 272.1007 13.13470309226081
ONEWEB-0101             
1 48049U 21025H   25324.18841605  .00000239  00000+0  61856-3 0  9996
2 48049  87.9001   1.7764 0001904  92.0766 268.0581 13.13469403226061
ONEWEB-0113             
1 48050U 21025J   25324.13738558 -.00000232  00000+0 -66641-3 0  9997
2 48050  87.9005   1.7183 0001729 104.0974 256.0348 13.13983642226156
ONEWEB-0112             
1 48051U 21025K   25324.15455639 -.00000056  00000+0 -18919-3 0  9995
2 48051  87.9008   1.7450 0001734  95.3068 264.8259 13.13470138226158
ONEWEB-0156             
1 48052U 21025L   25324.16301408  .00000196  00000+0  50097-3 0  9997
2 48052  87.9006   1.7551 0001752  93.7942 266.3388 13.13469763226132
ONEWEB-0161             
1 48053U 21025M   25324.13761411 -.00000242  00000+0 -69775-3 0  9996
2 48053  87.9002   1.7772 0001712  90.4151 269.7174 13.13468807226066
